GSAT0223 (GALILEO 27)   
1 49809U 21116A   26085.57513177 -.00000095  00000+0  00000+0 0  9991
2 49809  57.1864 343.9082 0001802 284.7150 254.2688  1.70475251 26779
