{
  "norad_id": 49809,
  "name": "GSAT0223 (GALILEO 27)",
  "history": [
    {
      "epoch": "2026-03-26T13:48:11.384928",
      "apogee_km": 23227.37219811189,
      "perigee_km": 23216.70429495304,
      "latitude_deg": -25.519891251600956,
      "longitude_deg": 104.11264991993085,
      "semi_major_axis_km": 29600.175246532464,
      "eccentricity": 0.0001802,
      "inclination_deg": 57.1864,
      "raan_deg": 343.9082,
      "arg_perigee_deg": 284.715,
      "mean_anomaly_deg": 254.2688,
      "mean_motion_rev_day": 1.70475251
    }
  ]
}